GLOBALSTAR M068         
1 32266U 07048D   24185.56422992 -.00000079  00000+0  13611-3 0  9998
2 32266  51.9893 284.9514 0001468 107.7981 265.4786 12.62792793773802
GLOBALSTAR M079         
1 37188U 10054A   24184.88753735 -.00000108  00000+0 -23652-4 0  9994
2 37188  52.0031 123.1085 0000288   7.3960  14.6702 12.62271389632342
GLOBALSTAR M074         
1 37189U 10054B   24185.17713546 -.00000110  00000+0 -34165-4 0  9998
2 37189  52.0009 121.6048 0000494  39.8830  97.8525 12.62269896633050
GLOBALSTAR M076         
1 37190U 10054C   24185.60676059 -.00000106  00000+0 -14543-4 0  9998
2 37190  52.0023 120.4351 0000650 356.9475 174.8369 12.62262477633111
GLOBALSTAR M077         
1 37191U 10054D   24184.94066941 -.00000097  00000+0  39502-4 0  9998
2 37191  52.0077  79.2187 0000771  52.9420  30.6704 12.62274283633048
GLOBALSTAR M075         
1 37192U 10054E   24185.69901903 -.00000100  00000+0  21654-4 0  9992
2 37192  51.9923 162.6057 0000145  35.6713 135.4393 12.62261339632368
GLOBALSTAR M073         
1 37193U 10054F   24185.46175675 -.00000099  00000+0  27142-4 0  9992
2 37193  52.0067  76.8829 0000685  47.9016 123.1559 12.62266552633848
GLOBALSTAR M083         
1 37739U 11033A   24185.51990297 -.00000079  00000+0  13908-3 0  9999
2 37739  51.9874  25.9114 0000793  96.9867 280.3365 12.62261624603188
GLOBALSTAR M088         
1 37740U 11033B   24185.57171363 -.00000095  00000+0  46807-4 0  9995
2 37740  51.9741 291.5402 0000718 139.8943 232.9049 12.62264694598661
GLOBALSTAR M091         
1 37741U 11033C   24185.52650528 -.00000077  00000+0  14727-3 0  9991
2 37741  51.9988 254.6120 0000715 162.1557 303.6860 12.62264402599417
GLOBALSTAR M085         
1 37742U 11033D   24185.52479708 -.00000075  00000+0  16260-3 0  9993
2 37742  51.9838 205.9606 0000355 180.0315 339.5279 12.62263178600156
GLOBALSTAR M081         
1 37743U 11033E   24184.84125447 -.00000066  00000+0  20860-3 0  9997
2 37743  51.9930 210.6153 0000383 214.4890 316.5733 12.62266638599725
GLOBALSTAR M089         
1 37744U 11033F   24184.92805219 -.00000090  00000+0  75944-4 0  9990
2 37744  51.9904 164.6451 0000467 349.7954  34.4697 12.62265594600584
GLOBALSTAR M084         
1 38040U 11080A   24185.05136858 -.00000091  00000+0  70627-4 0  9997
2 38040  52.0023  31.3701 0000968  64.0422 102.3170 12.62263891578852
GLOBALSTAR M080         
1 38041U 11080B   24185.88195514 -.00000086  00000+0  10131-3 0  9990
2 38041  52.0074  30.3253 0000820  50.2191  52.6915 12.62262451578942
GLOBALSTAR M082         
1 38042U 11080C   24184.87567319 -.00000095  00000+0  48367-4 0  9998
2 38042  52.0091 348.7989 0001326 117.2962  30.1571 12.62270767579552
GLOBALSTAR M092         
1 38043U 11080D   24185.86316613 -.00000102  00000+0  10265-4 0  9993
2 38043  52.0091  76.1494 0000839  61.0548  16.5115 12.62263132578177
GLOBALSTAR M090         
1 38044U 11080E   24185.51960323 -.00000100  00000+0  19602-4 0  9991
2 38044  51.9905 341.0970 0000994 116.3374 318.4716 12.62264473579627
GLOBALSTAR M086         
1 38045U 11080F   24185.79976976 -.00000090  00000+0  78390-4 0  9990
2 38045  51.9915 340.7667 0000283 203.0851 306.2827 12.62263901579660
GLOBALSTAR M097         
1 39072U 13005A   24185.47719193 -.00000079  00000+0  13698-3 0  9997
2 39072  52.0037 255.9470 0000585 165.1396 194.9488 12.62264067526856
GLOBALSTAR M093         
1 39073U 13005B   24185.21289862 -.00000082  00000+0  11996-3 0  9998
2 39073  51.9798 250.6106 0000647 179.3273 180.7594 12.62275556526819
GLOBALSTAR M094         
1 39074U 13005C   24185.13366590 -.00000100  00000+0  20646-4 0  9998
2 39074  51.9931 164.8818 0000126 250.2798 109.8055 12.62267390528316
GLOBALSTAR M096         
1 39075U 13005D   24185.78029249 -.00000084  00000+0  11124-3 0  9998
2 39075  52.0044 211.1567 0000477 193.3986 166.6868 12.62267394527648
GLOBALSTAR M078         
1 39076U 13005E   24185.51652556 -.00000121  00000+0 -95717-4 0  9997
2 39076  51.9888 296.9458 0001596 123.4165 236.6855 12.62271018526099
GLOBALSTAR M095         
1 39077U 13005F   24185.70086252 -.00000090  00000+0  75833-4 0  9994
2 39077  51.9809 293.7510 0001214 144.6525 215.4422 12.62261690526123
GLOBALSTAR M087         
1 52888U 22064A   24185.17420271 -.00000113  00000+0  28718-4 0  9994
2 52888  51.9741 152.6346 0009733  45.6940 314.4757 13.37577459 99669
